LAT,LONG,Lng,Lat,Agency_Name,Address,Request_type,Description
43.0489191,-76.1517942,-76.1479,43.0093,"Garbage, Recycling & Graffiti","3138 Midland Ave Syracuse NY 13205, United States",Report Improperly Set Out Trash or Recycling (Illegal Setout),
43.0489191,-76.1517942,-76.1155,43.0393,"Garbage, Recycling & Graffiti","211 Clarke St Syracuse, New York, 13210",Report Litter on Private Land,Constituent called anonymously to report 10-15 bags of garbage on the side of this property. Stated that the bags have been there for weeks & have now been ripped open due the animals tearing the bags. 
43.0489191,-76.1517942,-76.1198,43.04,"Garbage, Recycling & Graffiti","Westcott Syracuse, New York",Report Improperly Set Out Trash or Recycling (Illegal Setout),Constituent called to report that the recycling and trash carts have been left out for multiple days in the Westcott area. 
43.0489191,-76.1517942,-76.1233,43.0382,"Garbage, Recycling & Graffiti","Lancaster Ave Syracuse, New York, 13210",Report Improperly Set Out Trash or Recycling (Illegal Setout),Constituent called to report that the recycling and trash carts have been left out for multiple days on this street. 
43.0489191,-76.1517942,-76.1397,42.9991,"Garbage, Recycling & Graffiti","111 Munson Dr Syracuse, New York, 13205",Report a Skipped Weekly Trash Pick Up,Skipped Thursday.  Still at curb.
43.0489191,-76.1517942,-76.1657,43.043,"Garbage, Recycling & Graffiti","525 Gifford St Syracuse, New York, 13204",Report a Skipped Weekly Trash Pick Up,Skipped friday.  Only got some of the street.
43.0489191,-76.1517942,-76.1761,43.036,"Garbage, Recycling & Graffiti","322 Rowland St Syracuse, New York, 13204",Report a Skipped Weekly Trash Pick Up,Skipped Friday.  Still out.
43.0489191,-76.1517942,-76.1872,43.0335,"Garbage, Recycling & Graffiti","1790–1798 W Onondaga St Syracuse NY 13204, United States",Report Litter on Public Land,
43.0489191,-76.1517942,-76.1732,43.0348,"Garbage, Recycling & Graffiti","311 Elliott St Syracuse NY 13204, United States",Report Improperly Set Out Trash or Recycling (Illegal Setout),
43.0489191,-76.1517942,-76.1437,43.0653,"Garbage, Recycling & Graffiti","106 Spring St Syracuse, New York, 13208",Report a Skipped Weekly Trash Pick Up,Skipped monday-still out
43.0489191,-76.1517942,-76.1202,43.0619,"Garbage, Recycling & Graffiti","502 Hixson Ave Syracuse, New York, 13206",Report a Skipped Weekly Trash Pick Up,skipped tuesday
43.0489191,-76.1517942,-76.1706,43.039,"Garbage, Recycling & Graffiti","209 Davis St Syracuse, New York, 13204",Report Improperly Set Out Trash or Recycling (Illegal Setout),garbage can and recycling plus a couch on the curb.  Trash day is Friday morning.
43.0489191,-76.1517942,-76.1107,43.0625,"Garbage, Recycling & Graffiti","347 Forest Hill Dr Syracuse, New York, 13206",Sanitation Exempt Skipped,"Constituent says her trash was skipped, "
43.0489191,-76.1517942,-76.1703,43.0334,"Garbage, Recycling & Graffiti","510 Dudley St Syracuse, NY 13204, USA",Report Litter on Private Land,510 Dudley does not keep the property clean has mounds of trash on the side of the house that's blowing into the street does not clean the snow from their sidewalk which is forcing children people with disabilities wheelchairs and elderly people in the street
43.0489191,-76.1517942,-76.1313,43.0483,"Garbage, Recycling & Graffiti","1212east E Fayette St Syracuse NY 13210, United States",Report Improperly Set Out Trash or Recycling (Illegal Setout),
43.0489191,-76.1517942,-76.1054,43.0425,"Garbage, Recycling & Graffiti","2901–2913 E Genesee St Syracuse NY 13224, United States",Trash Can on Public Land,
43.0489191,-76.1517942,-76.1607,43.0712,"Garbage, Recycling & Graffiti","1102 Carbon St Syracuse NY 13208, United States",Report a Skipped Recycling Pick Up,
43.0489191,-76.1517942,-76.1624,43.0734,"Garbage, Recycling & Graffiti","1522 Spring St Syracuse, New York, 13208",Tires,4 tires
43.0489191,-76.1517942,-76.1467,43.0838,"Garbage, Recycling & Graffiti","349 Harford Rd Syracuse, New York, 13208",Sanitation Exempt Skipped,skipped Monday.  
43.0489191,-76.1517942,-76.1726,43.0359,"Garbage, Recycling & Graffiti","208 Rowland St Syracuse NY 13204, United States",Report a Skipped Recycling Pick Up,Can was out the night before 
43.0489191,-76.1517942,-76.1104,43.0482,"Garbage, Recycling & Graffiti","201 Fenway Dr Syracuse, New York, 13224",Sanitation Exempt Skipped,Constituent says her weekly trash was skipped. 
43.0489191,-76.1517942,-76.1662,43.0363,"Garbage, Recycling & Graffiti","208 Delaware St Syracuse, New York, 13204",Report a Skipped Recycling Pick Up,Constituent called to report their recycling as skipped. Skipped from Friday (1/3). 
43.0489191,-76.1517942,-76.1224,43.0575,"Garbage, Recycling & Graffiti","721 Teall Ave Syracuse, New York, 13206",Report a Skipped Weekly Trash Pick Up,Constituent says her weekly trash was skipped. 
43.0489191,-76.1517942,-76.1103,43.0324,"Garbage, Recycling & Graffiti","730 Crawford Ave Syracuse, New York, 13224",Sanitation Exempt Skipped,Constituent says her trash was missing and the recycling was skipped. 
43.0489191,-76.1517942,-76.1611,43.0659,"Garbage, Recycling & Graffiti","310 Sunset Ave Syracuse, New York, 13208",Report a Skipped Recycling Pick Up,Constituent called to report their recycling as skipped. NO violations 
43.0489191,-76.1517942,-76.161,43.0658,"Garbage, Recycling & Graffiti","308 Sunset Ave Syracuse, New York, 13208",Report a Skipped Recycling Pick Up,Constituent called to report their trash as skipped. NO violations. 
43.0489191,-76.1517942,-76.1609,43.0658,"Garbage, Recycling & Graffiti","306 Sunset Ave Syracuse, New York, 13208",Report a Skipped Recycling Pick Up,Constituent called to report their recycling as skipped. No violations. 
43.0489191,-76.1517942,-76.1452,43.0689,"Garbage, Recycling & Graffiti","159 Griffiths St Syracuse, New York, 13208",Tires,4 tires. 
43.0489191,-76.1517942,-76.1138,43.0703,"Garbage, Recycling & Graffiti","213 North Ave Syracuse, New York, 13206",Report a Skipped Bulk Pick Up,Scheduled bulk skipped. 
43.0489191,-76.1517942,-76.13,43.048,"Garbage, Recycling & Graffiti","310 Pine St Syracuse, New York, 13210",Report a Skipped Recycling Pick Up,Constituent says his recycling was skipped. 
43.0489191,-76.1517942,-76.1273,43.0646,"Garbage, Recycling & Graffiti","149 Durston Ave Syracuse, New York, 13203",Report a Skipped Bulk Pick Up,"Skipped bulk item, recliner/chair. "
43.0489191,-76.1517942,-76.1135,43.0649,"Garbage, Recycling & Graffiti","237 Hickok Ave Syracuse, New York, 13206",Report a Skipped Bulk Pick Up,Futon scheduled in rubicon skipped. 
43.0489191,-76.1517942,-76.1279,43.0682,"Garbage, Recycling & Graffiti","210 Kline St Syracuse, New York, 13203",Report a Skipped Bulk Pick Up,"Skipped bulk, dresser. "
43.0489191,-76.1517942,-76.1097,43.0738,"Garbage, Recycling & Graffiti","308 Norwood Ave Syracuse, New York, 13206",Report a Skipped Weekly Trash Pick Up,Constituent says her weekly trash was skipped. 
43.0489191,-76.1517942,-76.111,43.0485,"Garbage, Recycling & Graffiti","2317 E Fayette St Syracuse, New York, 13224",Report a Skipped Bulk Pick Up,Bulk requested in rubicon skipped. 
43.0489191,-76.1517942,-76.0971,43.0632,"Garbage, Recycling & Graffiti","131 Luddington St Syracuse, New York, 13206",Report a Skipped Weekly Trash Pick Up,Skipped trash. 
43.0489191,-76.1517942,-76.1752,43.0338,"Garbage, Recycling & Graffiti","1301 W Onondaga St Syracuse, New York, 13204",Report a Skipped Weekly Trash Pick Up,Skipped trash and recycling from over the weekend. 
43.0489191,-76.1517942,-76.115,43.0455,"Garbage, Recycling & Graffiti","2317 E Genesee St Syracuse NY 13210, United States",Report Improperly Set Out Trash or Recycling (Illegal Setout),
43.0489191,-76.1517942,-76.1129,43.0573,"Garbage, Recycling & Graffiti","549 Hickok Ave Syracuse, NY, 13206, USA",Report Improperly Set Out Trash or Recycling (Illegal Setout),Two garbage bags have been left at the curb after trash cans were brought in - the city plow is going to hit these and trash will end up all up the street they are very close to the road. 
43.0489191,-76.1517942,-76.106,43.0673,"Garbage, Recycling & Graffiti","153 S Edwards Ave Syracuse, New York, 13206",Report a Skipped Recycling Pick Up,"Trash pick up skipped, can was out front, only recycling picked up"
43.0489191,-76.1517942,-76.1609,43.0174,"Garbage, Recycling & Graffiti","220 Valley Dr Syracuse, New York, 13207",Report a Skipped Bulk Pick Up,Constituent called to report their scheduled bulk pick up as skipped. No violations. 
43.0489191,-76.1517942,-76.093,43.0628,"Garbage, Recycling & Graffiti","362 Clover Ridge Dr Syracuse, New York, 13206",Report a Skipped Recycling Pick Up,Constituent called to report their recycling as skipped. No violations.  
43.0489191,-76.1517942,-76.1129,43.0573,"Garbage, Recycling & Graffiti","549 Hickok Ave Syracuse, New York, 13206",Report a Skipped Bulk Pick Up,Constituent called to report her scheduled bulk pick up as skipped. No violations. 
43.0489191,-76.1517942,-76.1425,43.0605,"Garbage, Recycling & Graffiti","113 S Alvord St Syracuse, New York, 13203",Report a Skipped Recycling Pick Up,Constituent called to report her recycling as skipped. No violations. 
43.0489191,-76.1517942,-76.1043,43.0484,"Garbage, Recycling & Graffiti","2712 E Fayette St Syracuse, New York, 13224",Sanitation Carts,Constituent says her trash cart was switched. The cart in front of her property belongs to 600 Seeley. She would like that cart replaced because squirrels have gotten into it and the wheel is missing. 
43.0489191,-76.1517942,-76.136,43.0645,"Garbage, Recycling & Graffiti","900 Oak St Syracuse, New York, 13203",Report a Skipped Weekly Trash Pick Up,Constituent called to report her trash as skipped. No violations. 
43.0489191,-76.1517942,-76.1204,43.0642,"Garbage, Recycling & Graffiti","200 Hixson Ave Syracuse, New York, 13206",Report a Skipped Bulk Pick Up,Skipped bulk trash. 
43.0489191,-76.1517942,-76.1347,43.0558,"Garbage, Recycling & Graffiti","343 Gertrude St Syracuse, New York, 13203",Report a Skipped Weekly Trash Pick Up,Skipped weekly trash. 
43.0489191,-76.1517942,-76.0992,43.062,"Garbage, Recycling & Graffiti","1200 Sunnycrest Rd Syracuse, New York, 13206",Report a Skipped Bulk Pick Up,Constituent was skipped per constituent. 
43.0489191,-76.1517942,-76.1241,43.058,"Garbage, Recycling & Graffiti","230 Robinson St Syracuse, New York, 13203",Report a Skipped Bulk Pick Up,Bulk scheduled in rubicon skipped.
43.0489191,-76.1517942,-76.1248,43.0617,"Garbage, Recycling & Graffiti","304 Wilson St Syracuse, New York, 13203",Report a Skipped Weekly Trash Pick Up,Skipped weekly trash. 
43.0489191,-76.1517942,-76.1393,43.0607,"Garbage, Recycling & Graffiti","351 Douglas St Syracuse, NY, 13203, USA",Report a Skipped Recycling Pick Up,Trash collected but recycling skipped 
43.0489191,-76.1517942,-76.119,43.0648,"Garbage, Recycling & Graffiti","180 Cook Ave Syracuse, New York, 13206",Report a Skipped Weekly Trash Pick Up,Constituent called to report their trash as skipped. No violations.  
43.0489191,-76.1517942,-76.1049,43.0643,"Garbage, Recycling & Graffiti","272 S Midler Ave Syracuse, New York, 13206",Report a Skipped Recycling Pick Up,Constituent says her recycling was skipped. Driveway on glencove. 
43.0489191,-76.1517942,-76.0996,43.0674,"Garbage, Recycling & Graffiti","161 Plymouth Dr Syracuse, New York, 13206",Report a Skipped Weekly Trash Pick Up,Constituent called to report their trash as skipped. No violations. 
43.0489191,-76.1517942,-76.1396,43.0623,"Garbage, Recycling & Graffiti","145 Jasper St Syracuse, New York, 13203",Report a Skipped Recycling Pick Up,Constituent says his recycling was skipped.
43.0489191,-76.1517942,-76.1234,43.0583,"Garbage, Recycling & Graffiti","329 Robinson St Syracuse, New York, 13203",Report a Skipped Bulk Pick Up,Skipped bulk trash. 
43.0489191,-76.1517942,-76.1429,43.0708,"Garbage, Recycling & Graffiti","1340 Butternut St Syracuse, New York, 13208",Report a Skipped Weekly Trash Pick Up,Constituent called to report their trash as skipped. No violations. 
43.0489191,-76.1517942,-76.1503,43.0778,"Garbage, Recycling & Graffiti","140 7th North St Syracuse, New York, 13208",Report a Skipped Weekly Trash Pick Up,Constituent called to report their trash as skipped. No violations. 
43.0489191,-76.1517942,-76.1869,43.0291,"Garbage, Recycling & Graffiti","309 Overlook Dr Syracuse, New York, 13207",Report a Skipped Recycling Pick Up,"Skipped recycling, week B. "
43.0489191,-76.1517942,-76.1223,43.0562,"Garbage, Recycling & Graffiti","615 Teall Ave Syracuse, New York, 13206",Report a Skipped Weekly Trash Pick Up,Constituent called to report their trash as skipped. No violations.  
43.0489191,-76.1517942,-76.1008,43.0712,"Garbage, Recycling & Graffiti","1017 Tyson Pl Syracuse, New York, 13206",Report a Skipped Weekly Trash Pick Up,Constituent says 2 of the trash carts were not emptied. 
43.0489191,-76.1517942,-76.1408,43.0609,"Garbage, Recycling & Graffiti","209 Beecher St Syracuse, New York, 13203",Report a Skipped Weekly Trash Pick Up,looks like they took the rest of the blocks just not here.
43.0489191,-76.1517942,-76.1305,43.0547,"Garbage, Recycling & Graffiti","353 Elm St Syracuse, New York, 13203",Report a Skipped Bulk Pick Up,Constituent called to report her scheduled bulk pick up as skipped. No violations. 
43.0489191,-76.1517942,-76.0937,43.0623,"Garbage, Recycling & Graffiti","1624 Caleb Ave Syracuse, New York, 13206",Sanitation Exempt Skipped,"Skipped recycling, Medical exemption list. "
43.0489191,-76.1517942,-76.179,43.0301,"Garbage, Recycling & Graffiti","918 Stolp Ave Syracuse, New York, 13207",Report a Skipped Recycling Pick Up,Constituent says her weekly recycling was skipped. 
43.0489191,-76.1517942,-76.1196,43.06,"Garbage, Recycling & Graffiti","301 Kinne St Syracuse, New York, 13206",Report a Skipped Bulk Pick Up,Constituent called to report their scheduled bulk as skipped. No violations. Box spring. 
43.0489191,-76.1517942,-76.1346,43.0209,"Garbage, Recycling & Graffiti","Vincent St Syracuse, New York, 13210",Report Improperly Set Out Trash or Recycling (Illegal Setout),"Constituent called anonymously to report illegal setout of trash carts. Stated that there are both trash and recycling carts at the curb, stated they sit there all week and are never returned to the properties. "
43.0489191,-76.1517942,-76.144,42.9938,"Garbage, Recycling & Graffiti","5222 S Salina St Syracuse, New York, 13205",Report a Skipped Weekly Trash Pick Up,Constituent called to report his trash pick up as skipped from Thursday pick up. Constituent was advised to pull the cart back in for the weekend and place it back at the curb Sunday night for Monday morning collection. 
43.0489191,-76.1517942,-76.1657,43.0148,"Garbage, Recycling & Graffiti","204 Lynch Ave Syracuse, New York, 13207",Report Improperly Set Out Trash or Recycling (Illegal Setout),"Constituent called to report that this property is putting bagged trash in their recycling cart and leaving the cart out past their trash date, leaving trash loose on property, and shifting the cans over onto neighbor's property. "
43.0489191,-76.1517942,-76.1889,43.0455,"Garbage, Recycling & Graffiti","612 Tompkins St Syracuse, New York, 13204",Report a Skipped Weekly Trash Pick Up,Constituent called to report their trash as skipped. No violations. 
43.0489191,-76.1517942,-76.1219,43.056,"Garbage, Recycling & Graffiti","608 Teall Ave Syracuse, New York, 13206",Yard Waste,"Christmas tree yard waste was not picked up. I thought it was delayed due to the snow, but it has been there since January 4th. Can someone please pick it up? Thank you!"
43.0489191,-76.1517942,-76.1372,43.0622,"Garbage, Recycling & Graffiti","202 Jasper St Syracuse, New York, 13203",Report a Skipped Recycling Pick Up,Constituent called to report her recycling as skipped. No violations. 
43.0489191,-76.1517942,-76.1703,43.0334,"Garbage, Recycling & Graffiti","510 Dudley St Syracuse, NY 13204, USA",Report Litter on Private Land,Trash on the side of the building causing rats and roaches to 1000 Bellevue Avenue Tentants on the back of the building  smell trash and are seeing mice and roaches from that trash. The owner does not clean sidewalks and people have to walk in street 
43.0489191,-76.1517942,-76.143,42.9892,"Garbage, Recycling & Graffiti","135 Richfield Ave Syracuse, New York, 13205",Report a Skipped Weekly Trash Pick Up,Constituent called to report their trash as skipped. No violations. 
43.0489191,-76.1517942,-76.1244,43.0727,"Garbage, Recycling & Graffiti","537 Grant Blvd Syracuse, New York, 13203",Report a Skipped Recycling Pick Up,Constituent emailed cityline reporting that his bulk recycling skipped. Supposed to be picked up on (1/7). Constituent was advised to place the cart out again on Tuesday (1/14) per sanitation. 
43.0489191,-76.1517942,-76.1721,43.051,"Garbage, Recycling & Graffiti","513 Wilkinson St Syracuse, New York, 13204",Report Improperly Set Out Trash or Recycling (Illegal Setout),"Constituent called to report that this address has left the recycle carts out for weeks, and continuing to pile up and now the items in the carts are ending up on neighbor's property. "
43.0489191,-76.1517942,-76.1567,43.0436,"Garbage, Recycling & Graffiti","206 Gifford St Syracuse, New York, 13202",Report a Skipped Weekly Trash Pick Up,Constituent called to report their trash as skipped. No violations. 
43.0489191,-76.1517942,-76.1305,43.0234,"Garbage, Recycling & Graffiti","224 Harriette Ave Syracuse, New York, 13210",Sanitation Exempt Skipped,Constituent called to report their trash as skipped. No violations. 
43.0489191,-76.1517942,-76.14,43.0053,"Garbage, Recycling & Graffiti","306 E Glen Ave Syracuse, New York, 13205",Report a Skipped Weekly Trash Pick Up,Constituent called to report their trash as skipped. No violations. 
43.0489191,-76.1517942,-76.1139,43.0576,"Garbage, Recycling & Graffiti","429 Vann St Syracuse, New York, 13206",Yard Waste,Constituent says her tree was skipped. 
43.0489191,-76.1517942,-76.1128,43.0336,"Garbage, Recycling & Graffiti","640 Cumberland Ave Syracuse, New York, 13210",Yard Waste,Constituent says plow partial cover tree. 
43.0489191,-76.1517942,-76.1379,42.9938,"Garbage, Recycling & Graffiti","322 Sunrise Dr Syracuse, New York, 13205",Report a Skipped Weekly Trash Pick Up,Constituent says his weekly trash was skipped. 
43.0489191,-76.1517942,-76.1589,43.065,"Garbage, Recycling & Graffiti","205 Danforth St Syracuse, NY, 13208, USA",Report Improperly Set Out Trash or Recycling (Illegal Setout),
43.0489191,-76.1517942,-76.1598,43.0385,"Garbage, Recycling & Graffiti","627 W Onondaga St Syracuse NY 13204, United States",Report Improperly Set Out Trash or Recycling (Illegal Setout),
43.0489191,-76.1517942,-76.1779,43.0216,"Garbage, Recycling & Graffiti","1130–1150 Glenwood Ave Syracuse NY 13207, United States",Report Litter on Public Land,Newspapers littered along the street 
43.0489191,-76.1517942,-76.1639,43.022,"Garbage, Recycling & Graffiti","131 Annetta St Syracuse, New York, 13207",Report a Skipped Recycling Pick Up,Constituent called to report their recycling as skipped. No violations. 
43.0489191,-76.1517942,-76.138,42.9961,"Garbage, Recycling & Graffiti","122 N Cheltenham Rd Syracuse, New York, 13205",Sanitation Exempt Skipped,Constituent called to report their trash as skipped. No violations. 
43.0489191,-76.1517942,-76.1647,43.0219,"Garbage, Recycling & Graffiti","153 Annetta St Syracuse, New York, 13207",Report a Skipped Recycling Pick Up,Constituent called to report their recycling as skipped. No violations.
43.0489191,-76.1517942,-76.144,42.9887,"Garbage, Recycling & Graffiti","5605 S Salina St Syracuse, New York, 13205",Report a Skipped Weekly Trash Pick Up,Constituent says her neighbors trash was also skipped. 
43.0489191,-76.1517942,-76.1184,43.0345,"Garbage, Recycling & Graffiti","935 Westcott St Syracuse NY 13210, United States",Report Improperly Set Out Trash or Recycling (Illegal Setout),Trash has spilled out of tipped recycling bin. Bin is still at curb mid-day the day after pick-up on Westcott. This block of Westcott has (and always has) many bins that are not taken in. It would be great to have a general solution to trash set outs in this neighborhood (Westcott from Euclid to Broad). The carts are a great solution but in this neighborhood (along with Lancaster and Ackerman between Euclid and Broad) they are rarely moved from curbside. 
43.0489191,-76.1517942,-76.1382,43.0474,"Garbage, Recycling & Graffiti","825 E Genesee St Syracuse, NY 13210, USA",Tires,discarded tire on curb
43.0489191,-76.1517942,-76.1115,43.0253,"Garbage, Recycling & Graffiti","512 Nottingham Rd Syracuse, New York, 13210",Report a Skipped Bulk Pick Up,Constituent called to report her scheduled bulk pick up as skipped. Constituent moved the bulk trash in the trash cart now. No violations. 
43.0489191,-76.1517942,-76.149,43.028,"Garbage, Recycling & Graffiti","201 Mclennan Ave Syracuse, New York, 13205",Report a Skipped Bulk Pick Up,Bulk requested in rubicon skipped. 
43.0489191,-76.1517942,-76.1478,43.0223,"Garbage, Recycling & Graffiti","328 Warner Ave Syracuse, New York, 13205",Report a Skipped Weekly Trash Pick Up,Constituent says her weekly trash was skipped. 
43.0489191,-76.1517942,-76.1135,43.0449,"Garbage, Recycling & Graffiti","2428 E Genesee St Syracuse, New York, 13210",Report a Skipped Bulk Pick Up,Box spring skipped. Scheduled in rubicon. 
43.0489191,-76.1517942,-76.1645,43.0329,"Garbage, Recycling & Graffiti","203 Onondaga Ave Syracuse, New York, 13207",Report a Skipped Weekly Trash Pick Up,Constituent says her weekly trash was skipped. 
43.0489191,-76.1517942,-76.1492,43.012,"Garbage, Recycling & Graffiti","204 Rill Ave Syracuse, New York, 13205",Report a Skipped Recycling Pick Up,Constituent says her recycling was skipped. 
43.0489191,-76.1517942,-76.1505,43.0677,"Garbage, Recycling & Graffiti","611 Pond St Syracuse, New York, 13208",Report a Skipped Weekly Trash Pick Up,Constituent called to report that her trash is still skipped over from Monday (12/31). 
43.0489191,-76.1517942,-76.0939,43.0381,"Garbage, Recycling & Graffiti","314 Kimber Rd Syracuse, New York, 13224",Sanitation Exempt Skipped,Constituent says her weekly trash was skipped. 
43.0489191,-76.1517942,-76.142,43.0192,"Garbage, Recycling & Graffiti","2923 S Salina St Syracuse, New York, 13205",Report a Skipped Bulk Pick Up,Scheduled in rubicon. Skipped 2 cu yards. 
43.0489191,-76.1517942,-76.1479,43.0184,"Garbage, Recycling & Graffiti","262 W Corning Ave Syracuse, New York, 13205",Report a Skipped Bulk Pick Up,Scheduled in rubicon bulk skipped. 
43.0489191,-76.1517942,-76.142,43.016,"Garbage, Recycling & Graffiti","119 W Calthrop Ave Syracuse, New York, 13205",Report a Skipped Bulk Pick Up,Mattress skipped per caller.
43.0489191,-76.1517942,-76.1386,43.026,"Garbage, Recycling & Graffiti","512 E Colvin St Syracuse, New York, 13210",Report a Skipped Bulk Pick Up,Constituent called to report their scheduled bulk pick up as skipped. No violations. 
43.0489191,-76.1517942,-76.1372,43.064,"Garbage, Recycling & Graffiti","106 Whitwell Dr Syracuse, New York, 13203",Report a Skipped Bulk Pick Up,Constituent called to report their scheduled bulk pick up as skipped. No violations. 
43.0489191,-76.1517942,-76.1454,43.0054,"Garbage, Recycling & Graffiti","155 W Glen Ave Syracuse, New York, 13205",Report a Skipped Bulk Pick Up,Constituent called to report their scheduled bulk pick up as partial skip. No violations. 
43.0489191,-76.1517942,-76.1479,43.0283,"Garbage, Recycling & Graffiti","129 Mclennan Ave Syracuse, New York, 13205",Report a Skipped Bulk Pick Up,Constituent called to report her scheduled bulk pick up as skipped. No violations. 
43.0489191,-76.1517942,-76.1176,43.0325,"Garbage, Recycling & Graffiti","338 Roosevelt Ave Syracuse, New York, 13210",Report a Skipped Recycling Pick Up,Constituent called to report their recycling as skipped. No violations. 
43.0489191,-76.1517942,-76.1582,43.0171,"Garbage, Recycling & Graffiti","117 Bertram Pl Syracuse, New York, 13207",Report a Skipped Bulk Pick Up,Constituent called to report her scheduled bulk pick up as skipped. No violations. 
43.0489191,-76.1517942,-76.1531,43.0713,"Garbage, Recycling & Graffiti","1014 First North St Syracuse, New York, 13208",Tires,4 tires 
43.0489191,-76.1517942,-76.1413,43.0222,"Garbage, Recycling & Graffiti","2407 S State St Syracuse, New York, 13205",Report a Skipped Bulk Pick Up,Scheduled bulk pick up skipped. 
43.0489191,-76.1517942,-76.1362,43.0012,"Garbage, Recycling & Graffiti","382 E Seneca Tpke Syracuse NY 13205, United States",Report a Skipped Recycling Pick Up,Recycling was not taken. I put it out last night.
43.0489191,-76.1517942,-76.1466,43.0191,"Garbage, Recycling & Graffiti","217 W Lafayette Ave Syracuse, New York, 13205",Report a Skipped Recycling Pick Up,Constituent says his weekly recycling was skipped. 
43.0489191,-76.1517942,-76.1465,43.0194,"Garbage, Recycling & Graffiti","212 W Lafayette Ave Syracuse, New York, 13205",Report a Skipped Recycling Pick Up,Constituent says sani left a debris on the ground after his recycling pickup. 
43.0489191,-76.1517942,-76.1534,43.062,"Garbage, Recycling & Graffiti","124 Gebhardt Ave Syracuse NY 13208, United States",Tires,Please pick up these three tires
43.0489191,-76.1517942,-76.1533,43.0627,"Garbage, Recycling & Graffiti","1105 N Townsend St Syracuse NY 13208, United States",Tires,Please pick up these two tires  Thank you
43.0489191,-76.1517942,-76.125,43.0324,"Garbage, Recycling & Graffiti","115 Terrace Rd Syracuse NY 13210, United States",Report a Skipped Recycling Pick Up,"Skipped trash pickup (recycling was picked up, but not trash)"
43.0489191,-76.1517942,-76.1048,43.0619,"Garbage, Recycling & Graffiti","801–899 Sunnycrest Rd Syracuse NY 13206, United States",Report Litter on Public Land,Shopping cart on side of street  This is the 7th one recently 
43.0489191,-76.1517942,-76.1944,43.0253,"Garbage, Recycling & Graffiti","312–398 Winkworth Pkwy Syracuse NY 13215, United States",Report Litter on Public Land,Tire 
43.0489191,-76.1517942,-76.1643,43.043,"Garbage, Recycling & Graffiti","501 Gifford St Syracuse, NY, 13204, USA",Report Improperly Set Out Trash or Recycling (Illegal Setout),
43.0489191,-76.1517942,-76.1705,43.0447,"Garbage, Recycling & Graffiti","735 Marcellus St Syracuse, NY 13204, USA",Report Improperly Set Out Trash or Recycling (Illegal Setout),
43.0489191,-76.1517942,-76.0889,43.0455,"Garbage, Recycling & Graffiti","207 Carlton Dr Syracuse, New York, 13214",Report a Skipped Weekly Trash Pick Up,Constituent called to report their trash as skipped. No violations. 
43.0489191,-76.1517942,-76.0979,43.0358,"Garbage, Recycling & Graffiti","416 Brookford Rd Syracuse NY 13224, United States",Report a Skipped Recycling Pick Up,"This is not about recycling but there is no option for regular trash pick up  I sent another message about this situation using comments in the app  Trash was not picked up  This is the second time this happens within the last 3 or 4 months  When I called the Department of Public Works, they told me it was because excessive weight  Not sure how they can claim excessive weight without weighing it or by showing that the new automated device in the trucks is unable to lift it   Last time, they picked up the trash the following day  Now, that doesn't seem to be a possibility   They asked to keep my garbage for another entire week and used bulk pickup to be able to do 2 weeks in one pickup  This is completely unacceptable  I asked to speak to a supervisor and they told me that someone will contact me, but that never happened      "
43.0489191,-76.1517942,-76.1944,43.0551,"Garbage, Recycling & Graffiti","909 Willis Ave Syracuse, New York, 13204",Tires,2 tires. 
43.0489191,-76.1517942,-76.1127,43.0452,"Garbage, Recycling & Graffiti","2517 E Genesee St Syracuse, New York, 13224",Report a Skipped Bulk Pick Up,Constituent called to report her scheduled bulk pick up as skipped. No violations. 
43.0489191,-76.1517942,-76.1522,43.0563,"Garbage, Recycling & Graffiti","419 N Salina St Syracuse NY 13203, United States",Report Litter on Public Land,
43.0489191,-76.1517942,-76.1436,43.0287,"Garbage, Recycling & Graffiti","248 Baker Ave Syracuse, New York, 13205",Report a Skipped Recycling Pick Up,Constituent called to report their recycling as skipped. No violations. 
43.0489191,-76.1517942,-76.1134,43.0328,"Garbage, Recycling & Graffiti","1083 Westmoreland Ave Syracuse, NY, 13210, USA",Report a Skipped Recycling Pick Up,"Our recycling was not picked up this morning.  The rest of the block appears to have been.  It was put out last night, and is filled properly.  The can is full, so we can’t wait two weeks for next pick up. "
43.0489191,-76.1517942,-76.1457,43.0708,"Garbage, Recycling & Graffiti","328 Craig St Syracuse, New York, 13208",Report a Skipped Weekly Trash Pick Up,Skipped trash. 
43.0489191,-76.1517942,-76.1573,43.0014,"Garbage, Recycling & Graffiti","105 Kramer Dr Syracuse, New York, 13207",Tires,2 tires
43.0489191,-76.1517942,-76.1125,43.0309,"Garbage, Recycling & Graffiti","1021 Broad St Syracuse, New York, 13210",Report a Skipped Recycling Pick Up,Constituent says her recycling was skipped. 
43.0489191,-76.1517942,-76.1305,43.0234,"Garbage, Recycling & Graffiti","224 Harriette Ave Syracuse, New York, 13210",Sanitation Exempt Skipped,"Medical exemption, skipped trash and recycling. "
43.0489191,-76.1517942,-76.1439,43.0293,"Garbage, Recycling & Graffiti","216 Baker Ave Syracuse, New York, 13205",Report a Skipped Bulk Pick Up,Mattress and box spring skipped scheduled in rubicon. 
43.0489191,-76.1517942,-76.1115,43.0253,"Garbage, Recycling & Graffiti","512 Nottingham Rd Syracuse, New York, 13210",Report a Skipped Bulk Pick Up,mattress and box spring. 
43.0489191,-76.1517942,-76.1009,43.0378,"Garbage, Recycling & Graffiti","315 Brookford Rd Syracuse, New York, 13224",Report a Skipped Weekly Trash Pick Up,Constituent called to report their trash partially as skipped. No violations. 
43.0489191,-76.1517942,-76.1464,43.0104,"Garbage, Recycling & Graffiti","Slayton Ave Syracuse, New York, 13205",Report Litter on Public Land,located on the Roadside next to 157 Slayton Ave
43.0489191,-76.1517942,-76.1428,43.0039,"Garbage, Recycling & Graffiti","4445 S Salina St Syracuse, New York, 13205",Report Improperly Set Out Trash or Recycling (Illegal Setout),Constituent says there is trash at the curb. 
43.0489191,-76.1517942,-76.107,43.045,"Garbage, Recycling & Graffiti","105 Ferris Ave Syracuse, New York, 13224",Sanitation Exempt Skipped,"Skipped trash, medical exemption. "
43.0489191,-76.1517942,-76.1083,43.0385,"Garbage, Recycling & Graffiti","1208 Meadowbrook Dr Syracuse, New York, 13224",Report a Skipped Weekly Trash Pick Up,Constituent called to report her trash as skipped. No violations. 
43.0489191,-76.1517942,-76.0887,43.04,"Garbage, Recycling & Graffiti","103 Haddon Rd Syracuse, New York, 13214",Report a Skipped Weekly Trash Pick Up,Constituent called to report their trash as skipped. No violations. 
43.0489191,-76.1517942,-76.1427,43.0231,"Garbage, Recycling & Graffiti","136 Amherst Ave Syracuse, New York, 13205",Report a Skipped Weekly Trash Pick Up,weekly trash skipped per caller. 
43.0489191,-76.1517942,-76.0994,43.0358,"Garbage, Recycling & Graffiti","109 Woodside Dr Syracuse, New York, 13224",Report a Skipped Bulk Pick Up,Constituent called to report their scheduled bulk pick up as skipped. No violations. 
43.0489191,-76.1517942,-76.1424,43.02,"Garbage, Recycling & Graffiti","2849 S Salina St Syracuse NY 13205, United States",Trash Can on Public Land,
43.0489191,-76.1517942,-76.1465,43.0103,"Garbage, Recycling & Graffiti","106 Slayton Ave Syracuse, New York, 13205",Report a Skipped Weekly Trash Pick Up,Constituent called to report her trash as skipped. No violations. 
43.0489191,-76.1517942,-76.1125,43.0623,"Garbage, Recycling & Graffiti","348 Stafford Ave Syracuse, NY 13206, USA",Report Improperly Set Out Trash or Recycling (Illegal Setout),"Why is my neighbor continually cited for trash cans kept in front yard, but he is not fined? And his trash bins remain in his front yard despite repeated violations? The rest of the block takes care of its trash bins. This guy gets warned over and over and never changes his behavior. Why? Is he related to the mayor? To city councilman? We think there's something going on such that he is above the rules that the rest of us must follow. Is this true?"
43.0489191,-76.1517942,-76.1744,43.0232,"Garbage, Recycling & Graffiti","2135 S Geddes St Syracuse, New York, 13207",Report a Skipped Recycling Pick Up,Constituent called to report their recycling as skipped. No violations. 
43.0489191,-76.1517942,-76.1126,43.0498,"Garbage, Recycling & Graffiti","125 Croly St Syracuse, New York, 13224",Report a Skipped Weekly Trash Pick Up,Constituent called to report their trash as skipped. No violations. 
43.0489191,-76.1517942,-76.1117,43.0508,"Garbage, Recycling & Graffiti","401 Dakin St Syracuse, New York, 13224",Report a Skipped Weekly Trash Pick Up,Constituent called to report their trash as skipped. No violations. 
43.0489191,-76.1517942,-76.1266,43.0335,"Garbage, Recycling & Graffiti","107 Dorset Rd Syracuse, New York, 13210",Report a Skipped Weekly Trash Pick Up,Constituent says his weekly trash was skipped. 
43.0489191,-76.1517942,-76.1236,43.0661,"Garbage, Recycling & Graffiti","138 Hampton Rd Syracuse, New York, 13203",Report Improperly Set Out Trash or Recycling (Illegal Setout),Constituent called to report that this address has left both recycling and trash carts out for about two weeks. 
43.0489191,-76.1517942,-76.1852,43.0299,"Garbage, Recycling & Graffiti","1500 Stolp Ave Syracuse, New York, 13207",Sanitation Exempt Skipped,Constituent says the weekly trash was skipped. 
43.0489191,-76.1517942,-76.1391,42.9934,"Garbage, Recycling & Graffiti","212 Harding Pl Syracuse, New York, 13205",Sanitation Exempt Skipped,Constituent called to report his trash as skipped. No violations. 
43.0489191,-76.1517942,-76.1265,43.0331,"Garbage, Recycling & Graffiti","108 Dorset Rd Syracuse, New York, 13210",Report Improperly Set Out Trash or Recycling (Illegal Setout),"Former owner recently moved out and there is excess garbage at the curb.  As the former owner is gone and the new owner is not set to close on the property until late in the month, this trash needs to be removed. "
43.0489191,-76.1517942,-76.1446,43.028,"Garbage, Recycling & Graffiti","1700 S State St Syracuse, New York, 13205",Report a Skipped Weekly Trash Pick Up,"Skipped weekly trash, stated that he has been having issues getting his trash picked up the last few weeks. "
43.0489191,-76.1517942,-76.1908,43.0453,"Garbage, Recycling & Graffiti","106 Avoca St Syracuse, New York, 13204",Tires,1 tire. 
43.0489191,-76.1517942,-76.1453,43.0101,"Garbage, Recycling & Graffiti","118 Sheldon Ave Syracuse, New York, 13205",Report a Skipped Weekly Trash Pick Up,Constituent says her weekly trash was skipped. She says only one side of the street was done. 
43.0489191,-76.1517942,-76.164,43.0168,"Garbage, Recycling & Graffiti","117 Fairfield Ave Syracuse, New York, 13207",Sanitation Exempt Skipped,Constituent says her weekly recycling was skipped. 
43.0489191,-76.1517942,-76.1141,43.0449,"Garbage, Recycling & Graffiti","2412 E Genesee St Syracuse NY 13210, United States",Report Improperly Set Out Trash or Recycling (Illegal Setout),
43.0489191,-76.1517942,-76.1059,43.0675,"Garbage, Recycling & Graffiti","145 S Edwards Ave Syracuse NY 13206, United States",Report Improperly Set Out Trash or Recycling (Illegal Setout),Trash cans have been out on street all week! New owner and does not take care of bins!
43.0489191,-76.1517942,-76.1066,43.0677,"Garbage, Recycling & Graffiti","136 S Edwards Ave Syracuse, New York, 13206",Report Improperly Set Out Trash or Recycling (Illegal Setout),"This house has been cited before for leaving their cans out for weeks on end.  The recycle cart in the snow has been out there for over two weeks.  The other three cans out there since Tuesday's pickup.   Would you be able to fine this household, as unfortunately, the warnings did little to change their behavior.  "
43.0489191,-76.1517942,-76.0905,43.0626,"Garbage, Recycling & Graffiti","422 Boston St Syracuse, NY, 13206, USA",Report a Skipped Recycling Pick Up,Continued skipping of Recyclables with no understanding why
43.0489191,-76.1517942,-76.1116,43.0427,"Garbage, Recycling & Graffiti","103 Crawford Ave Syracuse NY 13224, United States",Report a Skipped Recycling Pick Up,"Trash and recycling not picked up this morning. Was placed out night before, and was not blocked by snow or vehicles. "
43.0489191,-76.1517942,-76.1347,43.0623,"Garbage, Recycling & Graffiti","336 Jasper St Syracuse, New York, 13203",Report a Skipped Recycling Pick Up,Constituent called to report their recycling as skipped. No violations. 
43.0489191,-76.1517942,-76.0903,43.0662,"Garbage, Recycling & Graffiti","229 Boston St Syracuse, New York, 13206",Report a Skipped Weekly Trash Pick Up,skipped trash. 
43.0489191,-76.1517942,-76.0904,43.0663,"Garbage, Recycling & Graffiti","225 Boston St Syracuse, New York, 13206",Report a Skipped Recycling Pick Up,"Skipped recycling pick up, constituent was advised to leave recycling at the curb. "
43.0489191,-76.1517942,-76.102,43.0661,"Garbage, Recycling & Graffiti","205 Homecroft Rd Syracuse, New York, 13206",Sanitation Exempt Skipped,Constituent called to report her trash as skipped. No violations. 
43.0489191,-76.1517942,-76.1062,43.0336,"Garbage, Recycling & Graffiti","517 Scott Ave Syracuse, New York, 13224",Report a Skipped Weekly Trash Pick Up,Constituent called to report their trash as skipped. No violations 
43.0489191,-76.1517942,-76.1423,43.0154,"Garbage, Recycling & Graffiti","126 W Lynhurst Ave Syracuse, New York, 13205",Report Improperly Set Out Trash or Recycling (Illegal Setout),Constituent called to report that a neighbor is setting trash out in front of the vacant lot near the fire hydrant. 
43.0489191,-76.1517942,-76.1153,43.0308,"Garbage, Recycling & Graffiti","801 Broad St Syracuse, New York, 13210",Report a Skipped Weekly Trash Pick Up,Constituent called to report her trash as skipped. No violations. 
43.0489191,-76.1517942,-76.1129,43.0573,"Garbage, Recycling & Graffiti","547 Hickok Ave Syracuse, New York, 13206",Report Improperly Set Out Trash or Recycling (Illegal Setout),Constituent called anonymously to report two bags of trash at this property that have been at the curb since yesterday. The property did not have a bulk order scheduled for 1/7 pick up. 
43.0489191,-76.1517942,-76.1134,43.0328,"Garbage, Recycling & Graffiti","1083 Westmoreland Ave Syracuse, New York, 13210",Report a Skipped Weekly Trash Pick Up,Constituent called to report their trash as skipped. No violations. 
43.0489191,-76.1517942,-76.1984,43.0579,"Garbage, Recycling & Graffiti","1142 Avery Ave Syracuse, New York, 13204",Tires,4 Tires
43.0489191,-76.1517942,-76.1119,43.0451,"Garbage, Recycling & Graffiti","119 Salt Springs Rd Syracuse, New York, 13224",Sanitation Exempt Skipped,Constituent says her trash was skipped. 
43.0489191,-76.1517942,-76.1548,43.0091,"Garbage, Recycling & Graffiti","317 Shirley Dr Syracuse, New York, 13207",Report Improperly Set Out Trash or Recycling (Illegal Setout),Constituent called anonymously to report a basketball hoop at the curb of this address. Stated that the basketball hoop has been there all summer and winter. Stated that it is not safe for drivers on the street with the weather. 
43.0489191,-76.1517942,-76.1178,43.0441,"Garbage, Recycling & Graffiti","147 Cambridge St Syracuse, New York, 13210",Report Improperly Set Out Trash or Recycling (Illegal Setout),couch has been on the curb for 2 weeks or more.
43.0489191,-76.1517942,-76.1364,43.0713,"Garbage, Recycling & Graffiti","1400 Oak St Syracuse, New York, 13203",Report a Skipped Weekly Trash Pick Up,"Pickup on Mertens ave, skipped the block."
43.0489191,-76.1517942,-76.1403,43.0782,"Garbage, Recycling & Graffiti","831 Wadsworth St Syracuse, New York, 13208",Report a Skipped Weekly Trash Pick Up,Skipped Monday-one trash cart.
43.0489191,-76.1517942,-76.0875,43.0429,"Garbage, Recycling & Graffiti","110 Claire Rd Syracuse, New York, 13214",Report a Skipped Recycling Pick Up,"Skipped Last wed, constituent states it's the whole block that was skipped."
43.0489191,-76.1517942,-76.137,43.0631,"Garbage, Recycling & Graffiti","311 Park St Syracuse, New York, 13203",Report a Skipped Weekly Trash Pick Up,skipped monday.  caller states it's the whole block.
43.0489191,-76.1517942,-76.1445,43.0617,"Garbage, Recycling & Graffiti","312 S Alvord St Syracuse, New York, 13203",Report a Skipped Recycling Pick Up,skipped Monday.
43.0489191,-76.1517942,-76.1335,43.0743,"Garbage, Recycling & Graffiti","139 Wainwright Ave Syracuse, New York, 13208",Sanitation Exempt Skipped,Trash and recycling skipped per caller. 
43.0489191,-76.1517942,-76.1608,43.0396,"Garbage, Recycling & Graffiti","119 Holland St Syracuse, New York, 13204",Illegal setout/sanitation violation dispute,Constituent called to report that someone is dumping about 6 bags of trash in front of this address. 
43.0489191,-76.1517942,-76.1134,43.0284,"Garbage, Recycling & Graffiti","1327 Westmoreland Ave Syracuse, NY, 13210, USA",Illegal setout/sanitation violation dispute,"Constituent called to report unbagged and bagged trash, laundry baskets, etc. set out in front this address. "
43.0489191,-76.1517942,-76.1589,43.065,"Garbage, Recycling & Graffiti","209 Danforth St Syracuse, New York, 13208",Report a Skipped Recycling Pick Up,Skipped today
43.0489191,-76.1517942,-76.1509,43.0546,"Garbage, Recycling & Graffiti","418 Pearl St Syracuse, New York, 13203",Report a Skipped Weekly Trash Pick Up,Constituent called to report her trash as skipped. No violations. 
43.0489191,-76.1517942,-76.1423,43.0684,"Garbage, Recycling & Graffiti","112 Hartley St Syracuse, New York, 13203",Sanitation Exempt Skipped,Constituent called to report her trash as skipped. No violations. 
43.0489191,-76.1517942,-76.1679,43.0292,"Garbage, Recycling & Graffiti","136 Beverly Rd Syracuse, New York, 13207",Sanitation Exempt Skipped,Constituent says her weekly trash has been skipped for the last 2 weeks. 
43.0489191,-76.1517942,-76.1549,43.064,"Garbage, Recycling & Graffiti","2027 Lodi St Syracuse, New York, 13208",Report a Skipped Weekly Trash Pick Up,Constituent called to report their trash as skipped. No violations. 
43.0489191,-76.1517942,-76.1539,43.0638,"Garbage, Recycling & Graffiti","2012 Lodi St Syracuse, New York, 13208",Report a Skipped Weekly Trash Pick Up,Constituent called to report their trash as skipped. No violations. 
43.0489191,-76.1517942,-76.1827,43.0319,"Garbage, Recycling & Graffiti","121 Wolcott Ave Syracuse, New York, 13207",Report a Skipped Weekly Trash Pick Up,Constituent called to report their trash as skipped. No violations. 
43.0489191,-76.1517942,-76.1056,43.0435,"Garbage, Recycling & Graffiti","221 East Ave Syracuse NY 13224, United States",Report Improperly Set Out Trash or Recycling (Illegal Setout),It looks like someone has dumped an old refrigerator on the roadside.
43.0489191,-76.1517942,-76.1878,43.0504,"Garbage, Recycling & Graffiti","402 Milton Ave Syracuse NY 13204, United States",Report a Skipped Recycling Pick Up,"Recycling missed at 402 Milton Ave & there are two more cans still out that look like they were also missed!

Thanks so much for your help!!"
43.0489191,-76.1517942,-76.1703,43.0334,"Garbage, Recycling & Graffiti","510 Dudley St Syracuse, NY 13204, USA",Report Litter on Private Land,people are living at the property are not clearing the sidewalk have mounds of trash on the side of the building that is causing mice and roaches House is not suitable for occupancy no one is supposed to be living at this location without clearance from the town. sidewalks are full of snow. Have not cleared the sidewalks for every storm that we have had this year so far. children elderly people are forced to walk into the street because they don't clear their sidewalks and keep them clean
43.0489191,-76.1517942,-76.0981,43.0621,"Garbage, Recycling & Graffiti","501 Plymouth Dr Syracuse, New York, 13206",Report a Skipped Weekly Trash Pick Up,Constituent called to report their trash as skipped. No violations.  
43.0489191,-76.1517942,-76.1587,43.0382,"Garbage, Recycling & Graffiti","147 South Ave Syracuse, New York, 13204",Report a Skipped Recycling Pick Up,Constituent called to report their recycling as skipped. No violations. 
43.0489191,-76.1517942,-76.1397,43.0006,"Garbage, Recycling & Graffiti","215 E Seneca Tpke Syracuse, New York, 13205",Report a Skipped Weekly Trash Pick Up,CONSTITUENT SAYS HIS WEEKLY TRASH WAS SKIPPED. 
43.0489191,-76.1517942,-76.1302,43.0043,"Garbage, Recycling & Graffiti","911 E Brighton Ave Syracuse, New York, 13205",Report a Skipped Weekly Trash Pick Up,WEEKLY TRASH SKIPPED PER CALLER. 
43.0489191,-76.1517942,-76.1398,43.0639,"Garbage, Recycling & Graffiti","129 Grumbach Ave Syracuse, NY, 13203, USA",Report Improperly Set Out Trash or Recycling (Illegal Setout),"Neighbors are new + don’t speak english, don’t understand trash put out. Currently piled in snowbank"
43.0489191,-76.1517942,-76.1394,43.064,"Garbage, Recycling & Graffiti","136 Grumbach Ave Syracuse, New York, 13203",Report a Skipped Bulk Pick Up,Skipped bulk pick up. 
43.0489191,-76.1517942,-76.1427,43.0684,"Garbage, Recycling & Graffiti","106 Hartley St Syracuse, New York, 13203",Report a Skipped Weekly Trash Pick Up,Constituent called to report their trash as skipped. No violations. Constituent said it looks like that whole street was skipped. 
43.0489191,-76.1517942,-76.158,43.0765,"Garbage, Recycling & Graffiti","908 Lemoyne Ave Syracuse, New York, 13208",Report a Skipped Recycling Pick Up,Constituent called to report their recycling as skipped. No violations.
43.0489191,-76.1517942,-76.1619,43.0664,"Garbage, Recycling & Graffiti","135 Turtle St Syracuse, New York, 13208",Report a Skipped Recycling Pick Up,Constituent called to report their recycling as skipped. No violations.  
43.0489191,-76.1517942,-76.1381,42.9989,"Garbage, Recycling & Graffiti","115 Phelps Pl Syracuse, New York, 13205",Report a Skipped Weekly Trash Pick Up,Skipped trash. 
43.0489191,-76.1517942,-76.1528,43.0776,"Garbage, Recycling & Graffiti","214 Willumae Dr Syracuse, New York, 13208",Report a Skipped Weekly Trash Pick Up,Constituent called to report their trash and bulk as skipped. No violations. 
43.0489191,-76.1517942,-76.1788,43.0329,"Garbage, Recycling & Graffiti","1408 Bellevue Ave Syracuse, New York, 13204",Report a Skipped Bulk Pick Up,Constituent called to report that their scheduled bulk pick up as skipped. No violations. 
43.0489191,-76.1517942,-76.1895,43.0468,"Garbage, Recycling & Graffiti","610 Ulster St Syracuse, New York, 13204",Sanitation Exempt Skipped,Constituent called to report her trash as skipped. No violations. 
43.0489191,-76.1517942,-76.1171,43.0327,"Garbage, Recycling & Graffiti","329 Roosevelt Ave Syracuse, New York, 13210",Report a Skipped Recycling Pick Up,Constituent says his weekly recycling was skipped. 
43.0489191,-76.1517942,-76.1813,43.0283,"Garbage, Recycling & Graffiti","265 Reed Ave Syracuse, New York, 13207",Report a Skipped Recycling Pick Up,Constituent called to report their trash and recycling as skipped. 
43.0489191,-76.1517942,-76.1813,43.0283,"Garbage, Recycling & Graffiti","265 Reed Ave Syracuse, New York, 13207",Tires,1 tire
43.0489191,-76.1517942,-76.1586,43.0337,"Garbage, Recycling & Graffiti","545 South Ave Syracuse, New York, 13204",Report a Skipped Weekly Trash Pick Up,Skipped trash. 
43.0489191,-76.1517942,-76.1798,43.0319,"Garbage, Recycling & Graffiti","126 Markland Ave Syracuse, New York, 13207",Report a Skipped Bulk Pick Up,Couch requested in rubicon skipped. 
43.0489191,-76.1517942,-76.1505,43.0682,"Garbage, Recycling & Graffiti","701 Spring St Syracuse, New York, 13208",Report a Skipped Weekly Trash Pick Up,Constituent says one of the trash carts was skipped. 
43.0489191,-76.1517942,-76.0945,43.0524,"Garbage, Recycling & Graffiti","722 Northway St Syracuse, New York, 13224",Sanitation Exempt Skipped,skipped trash. 
43.0489191,-76.1517942,-76.1453,43.0232,"Garbage, Recycling & Graffiti","245 Webster Ave Syracuse, New York, 13205",Report Improperly Set Out Trash or Recycling (Illegal Setout),Constituent called to report that this address has about 5 or 6 bags of trash piling up at this property. Constituent says this trash has been out there for about 3 weeks.  
43.0489191,-76.1517942,-76.15,43.0647,"Garbage, Recycling & Graffiti","107 Neutral Ct Syracuse, New York, 13208",Report a Skipped Bulk Pick Up,Bulk trash skipped. 
43.0489191,-76.1517942,-76.1487,43.0634,"Garbage, Recycling & Graffiti","640 E Division St Syracuse, New York, 13208",Report a Skipped Bulk Pick Up,Constituent called to report their scheduled bulk pick up as skipped. No violations. 
43.0489191,-76.1517942,-76.1497,43.0687,"Garbage, Recycling & Graffiti","711 Pond St Syracuse, New York, 13208",Report a Skipped Recycling Pick Up,Skipped recycling pick up. 
43.0489191,-76.1517942,-76.1465,43.015,"Garbage, Recycling & Graffiti","234 Primrose Ave Syracuse, New York, 13205",Report a Skipped Recycling Pick Up,Constituent called to report their recycling as skipped. No violations. 
43.0489191,-76.1517942,-76.1556,43.0058,"Garbage, Recycling & Graffiti","120 Bradford St Syracuse, New York, 13207",Trash Can on Public Land,Trash can has been sitting in the road near the curb for two weeks.
43.0489191,-76.1517942,-76.1388,43.0815,"Garbage, Recycling & Graffiti","109 Wilmore Pl Syracuse, New York, 13208",Report a Skipped Bulk Pick Up,Constituent called to report their scheduled bulk pick up as skipped. No violations. 
43.0489191,-76.1517942,-76.1744,43.0365,"Garbage, Recycling & Graffiti","103 Hartson St Syracuse, New York, 13204",Report a Skipped Bulk Pick Up,Constituent called to report that their scheduled bulk pick up as skipped. No violations. 
43.0489191,-76.1517942,-76.1481,43.0735,"Garbage, Recycling & Graffiti","2347 Grant Blvd Syracuse, New York, 13208",Report a Skipped Bulk Pick Up,Skipped bulk pick up. Bed frame.
43.0489191,-76.1517942,-76.1888,43.0479,"Garbage, Recycling & Graffiti","212 Willis Ave Syracuse, New York, 13204",Report a Skipped Bulk Pick Up,"Skipped bulk pick up. The item is a couch, stated that the couch was moved by the plow a couple of feet. "
43.0489191,-76.1517942,-76.1553,43.0676,"Garbage, Recycling & Graffiti","1304 Park St Syracuse, New York, 13208",Report a Skipped Recycling Pick Up,Constituent called to report their recycling as skipped. No violations. 
43.0489191,-76.1517942,-76.1028,43.04,"Garbage, Recycling & Graffiti","115 Hatherly Rd Syracuse, New York, 13224",Report Improperly Set Out Trash or Recycling (Illegal Setout),Trash and recycling have been out since Dec 31. Does not seem right that we have to look at this for a week.
43.0489191,-76.1517942,-76.1772,43.023,"Garbage, Recycling & Graffiti","153 Hancock Dr Syracuse, New York, 13207",Report a Skipped Recycling Pick Up,Constituent called to report their recycling as skipped. No violations.  
43.0489191,-76.1517942,-76.1458,43.0198,"Garbage, Recycling & Graffiti","621 Cannon St Syracuse, New York, 13205",Report a Skipped Recycling Pick Up,Skipped recycling pick up. 
43.0489191,-76.1517942,-76.1798,43.0358,"Garbage, Recycling & Graffiti","600 Rowland St Syracuse, New York, 13204",Report a Skipped Recycling Pick Up,Constituent says her recycling was skipped.
43.0489191,-76.1517942,-76.1443,43.075,"Garbage, Recycling & Graffiti","155 Ross Park Syracuse, New York, 13208",Report a Skipped Weekly Trash Pick Up,Skipped trash. 
43.0489191,-76.1517942,-76.1581,43.0043,"Garbage, Recycling & Graffiti","414 Englewood Ave Syracuse, New York, 13207",Report Litter on Private Land,"Tenants moved out before January 1 and left a ton of trash inside the house, by the side and around house. Landlord Tenants were still removing belongings on 1/3. Two pet cats were left abandoned outside with no food or water since Oct since they brought in a serval cat which is 100% illegal in NYS and the house needs to be checked to ensure other animals and chickens/rooster in basement weren't also left. "
43.0489191,-76.1517942,-76.1684,43.0351,"Garbage, Recycling & Graffiti","120 Putnam St Syracuse, New York, 13204",Report a Skipped Bulk Pick Up,Couch scheduled in rubicon skipped. 
43.0489191,-76.1517942,-76.1539,43.0078,"Garbage, Recycling & Graffiti","322 Loomis Ave Syracuse, New York, 13207",Report Improperly Set Out Trash or Recycling (Illegal Setout),Constituent called to report that this address has left out their recycling and trash cart out since Thursday. 
43.0489191,-76.1517942,-76.149,43.0812,"Garbage, Recycling & Graffiti","110 Merrill St Syracuse, New York, 13208",Report a Skipped Bulk Pick Up,Skipped bulk and weekly trash pick up. 
43.0489191,-76.1517942,-76.1676,43.0399,"Garbage, Recycling & Graffiti","208 Massena St Syracuse, New York, 13204",Report a Skipped Weekly Trash Pick Up,Constituent says her weekly trash was skipped. 
43.0489191,-76.1517942,-76.1603,43.0696,"Garbage, Recycling & Graffiti","1608 Park St Syracuse, New York, 13208",Report a Skipped Bulk Pick Up,2 cu yards at curb per constituent. 
43.0489191,-76.1517942,-76.1717,43.03,"Garbage, Recycling & Graffiti","429 Stolp Ave Syracuse, New York, 13207",Report a Skipped Bulk Pick Up,Constituent called to report their scheduled bulk pick up as skipped. No violations. 
43.0489191,-76.1517942,-76.1495,43.0213,"Garbage, Recycling & Graffiti","1821 Midland Ave Syracuse, New York, 13205",Report a Skipped Weekly Trash Pick Up,Constituent called to report their trash as skipped. No violations. 
43.0489191,-76.1517942,-76.16,43.0695,"Garbage, Recycling & Graffiti","1604 Park St Syracuse, New York, 13208",Report a Skipped Weekly Trash Pick Up,Constituent says her weekly trash was skipped. 
43.0489191,-76.1517942,-76.1662,43.0363,"Garbage, Recycling & Graffiti","208 Delaware St Syracuse, New York, 13204",Report a Skipped Recycling Pick Up,Skipped recycling. 
43.0489191,-76.1517942,-76.1711,43.0251,"Garbage, Recycling & Graffiti","216 Robineau Rd Syracuse, New York, 13207",Report a Skipped Recycling Pick Up,Constituent says her recycling was skipped. 
43.0489191,-76.1517942,-76.1423,43.0535,"Garbage, Recycling & Graffiti","231 Hawley Ave Syracuse, New York, 13203",Trash Can on Public Land,Please empty. Same guy keeps filling it with large black trash bags!
43.0489191,-76.1517942,-76.1586,43.0337,"Garbage, Recycling & Graffiti","545 South Ave Syracuse, New York, 13204",Report a Skipped Recycling Pick Up,Constituent says her recycling was skipped. 
43.0489191,-76.1517942,-76.1586,43.0337,"Garbage, Recycling & Graffiti","545 South Ave Syracuse, New York, 13204",Report a Skipped Weekly Trash Pick Up,Constituent says her weekly trash was skipped. 
43.0489191,-76.1517942,-76.1531,43.0617,"Garbage, Recycling & Graffiti","122 Gebhardt Ave Syracuse, New York, 13208",Sanitation Carts,Constituent says 4 carts were delivered. There are two carts which need to be removed at the curb. 
43.0489191,-76.1517942,-76.1453,43.022,"Garbage, Recycling & Graffiti","312 Webster Ave Syracuse, New York, 13205",Report a Skipped Recycling Pick Up,Constituent says her weekly recycling was skipped. 
43.0489191,-76.1517942,-76.1815,43.0312,"Garbage, Recycling & Graffiti","147 Reed Ave Syracuse, New York, 13207",Report a Skipped Weekly Trash Pick Up,Skipped weekly trash. 
43.0489191,-76.1517942,-76.1467,43.015,"Garbage, Recycling & Graffiti","252 Primrose Ave Syracuse, New York, 13205",Report a Skipped Recycling Pick Up,Constituent says the block was skipped. 
43.0489191,-76.1517942,-76.1664,43.0443,"Garbage, Recycling & Graffiti","322 Seneca St Syracuse, New York, 13204",Report a Skipped Weekly Trash Pick Up,Constituent says her weekly trash was skipped. 
43.0489191,-76.1517942,-76.1635,43.0361,"Garbage, Recycling & Graffiti","738 W Onondaga St Syracuse NY 13204, United States",Report Litter on Public Land,Garbage bag in the middle of the road   
43.0489191,-76.1517942,-76.1468,43.0218,"Garbage, Recycling & Graffiti","416 Cannon St Syracuse NY 13205, United States",Report a Skipped Recycling Pick Up,Recycling wan not picked up. I was told that they would be doing pickups on Sunday due the weather. How every recycling remains on our street. I do not want to receive a fine this week for it being out in the wrong week. 
43.0489191,-76.1517942,-76.0906,43.0435,"Garbage, Recycling & Graffiti","216 Deforest Rd Syracuse, New York, 13214",Report a Skipped Weekly Trash Pick Up,Constituent called to report their trash as skipped. No violations. 
43.0489191,-76.1517942,-76.2032,43.0238,"Garbage, Recycling & Graffiti","709 Winkworth Pkwy Syracuse, NY, 13215, USA",Report a Skipped Recycling Pick Up,Just a heads up that No recycling has been picked up in our neighborhood…! Every other week with the blue bins is creating a lot of issues with large families maxing out their bins.. anyway had to mention that.
43.0489191,-76.1517942,-76.2033,43.0242,"Garbage, Recycling & Graffiti","101 Richard Rd Syracuse NY 13215, United States",Report a Skipped Recycling Pick Up,Recycle Garbage at driveway on Winkworth Parkway has not been picked up. Neighbor's recycle garbage across the street on Winkworth Parkway also not picked up.
43.0489191,-76.1517942,-76.1963,43.0513,"Garbage, Recycling & Graffiti","710 Myrtle St Syracuse, NY, 13204, USA",Trash Can on Public Land,"The waste bin hasn't been picked up as of yet. It's going to be overfilled and unable to be closed because of the skipped day  This is our personal can, not a park can. However there was no option for Trash Skipped only recycling skipped. "
43.0489191,-76.1517942,-76.1302,43.0041,"Garbage, Recycling & Graffiti","915 E Brighton Ave Syracuse, NY, 13205, USA",Report a Skipped Recycling Pick Up,Sorry- there wasnt a correct selection. My recycling got picked up fine- my trash got skipped. Looks the same for my neighbor? Please pick up- tote full. Thank you!
43.0489191,-76.1517942,-76.1875,43.0548,"Garbage, Recycling & Graffiti","114 Williams St Syracuse, New York, 13204",Report a Skipped Weekly Trash Pick Up,Normal trash pick up is Friday. However due to the New Years Day holiday it was put out on Friday night after 6PM for Saturday pickup. Our whole block was missed. 100 blk of Williams Street 13204. Thank You
43.0489191,-76.1517942,-76.1733,43.0279,"Garbage, Recycling & Graffiti","600 Block Of Crossett St Syracuse, New York, 13207",Report a Skipped Recycling Pick Up,"there was no trash or recycling pickup in the 600 block of Crossett Street today which was the delayed holiday pickup day. Not sure about the 700 block, although I saw some pickup being done in the 500 block. I may be able to survive with my trash, but my recycling container is full and needs to be picked up."
43.0489191,-76.1517942,-76.1837,43.0296,"Garbage, Recycling & Graffiti","1321 Stolp Ave Syracuse NY 13207, United States",Report a Skipped Recycling Pick Up,The entire block was skipped for recycling pick up today 
43.0489191,-76.1517942,-76.1632,43.0434,"Garbage, Recycling & Graffiti","440 Gifford St Syracuse, New York, 13204",Report a Skipped Recycling Pick Up,"We put our trash and recycling out as the schedule indicates, the garbage was picked up but the recycling was not. We brought in the garbage cart but we need the recycling cart emptied as it is full and we have more recycling in the house that needs to be put out after the cart it emptied. We left the recycling cart out near the road. "
43.0489191,-76.1517942,-76.1578,43.0355,"Garbage, Recycling & Graffiti","102 Daisy St Syracuse, New York, 13204",Report a Skipped Recycling Pick Up,Trash and recycle bin was not picked up on Saturday. Normally it’s Friday but because of the holiday it was not picked up . Everybody around us was picked up except for us. I live on the dead-end street.
43.0489191,-76.1517942,-76.1677,43.0327,"Garbage, Recycling & Graffiti","905 Bellevue Ave Syracuse NY 13204, United States",Report a Skipped Recycling Pick Up,"Garbage was picked up, recycling was not."
43.0489191,-76.1517942,-76.1764,43.0302,"Garbage, Recycling & Graffiti","712 Stolp Ave Syracuse NY 13207, United States",Report a Skipped Recycling Pick Up,Skipped recycling pickup in entire neighborhood  Trash was picked up but not recycling  
43.0489191,-76.1517942,-76.1672,43.0288,"Garbage, Recycling & Graffiti","153 Beverly Rd Syracuse, NY 13207, USA",Report a Skipped Recycling Pick Up,Garbage and recycling pick up was skipped on our street
43.0489191,-76.1517942,-76.1851,43.027,"Garbage, Recycling & Graffiti","1009 Velasko Rd Syracuse, NY 13207, USA",Report a Skipped Recycling Pick Up,My recycling has not been picked up as well as the entire block
43.0489191,-76.1517942,-76.1852,43.0276,"Garbage, Recycling & Graffiti","915 Velasko Rd Syracuse, NY 13207, USA",Report a Skipped Recycling Pick Up,nobody's recycling has been picked up on Velasko Rd
43.0489191,-76.1517942,-76.1801,43.0285,"Garbage, Recycling & Graffiti","247 Rider Ave Syracuse, New York, 13207",Report a Skipped Recycling Pick Up,"My trash was picked up, but not my recycling. "
43.0489191,-76.1517942,-76.1873,43.0299,"Garbage, Recycling & Graffiti","216 Overlook Dr Syracuse NY 13207, United States",Report a Skipped Recycling Pick Up,
43.0489191,-76.1517942,-76.1828,43.0284,"Garbage, Recycling & Graffiti","420 Wolcott Ave Syracuse, New York, 13207",Report a Skipped Recycling Pick Up,Recycling not picked up
43.0489191,-76.1517942,-76.1864,43.0304,"Garbage, Recycling & Graffiti","616 Velasko Rd Syracuse, New York, 13207",Report a Skipped Recycling Pick Up,Skipped Recycling on Velasko Road 
43.0489191,-76.1517942,-76.1365,43.0539,"Garbage, Recycling & Graffiti","315 N Crouse Ave Syracuse, NY, 13203, USA",Graffiti on Private Land,Graffiti on side of building which is visible from Clinton Playlot park and park basketball court.
43.0489191,-76.1517942,-76.188,43.0312,"Garbage, Recycling & Graffiti","2043 Bellevue Ave Syracuse NY 13219, United States",Report a Skipped Recycling Pick Up,Trash and recycling was not picked up on my street (Austin Ave.) today. When will the trash and recyclables be picked up?    
43.0489191,-76.1517942,-76.1808,43.0304,"Garbage, Recycling & Graffiti","138 Rider Ave Syracuse, NY 13207, USA",Report a Skipped Recycling Pick Up,maybe you're late because of the snow?
43.0489191,-76.1517942,-76.171,43.029,"Garbage, Recycling & Graffiti","113 Gordon Ave Syracuse, New York, 13207",Report a Skipped Recycling Pick Up,"Hello! Neither garbage nor recycling has been picked up on the 100 block of Gordon. This is for every house on this street. Every house had garbage and recycling put out on time! I understand that the snow is a problem, but a lot of us are at capacity - especially for recycling and we will need a pick up today/tomorrow at the latest. Thank you!!"
43.0489191,-76.1517942,-76.1946,43.0299,"Garbage, Recycling & Graffiti","95-199 Merrell Rd Syracuse, NY, 13219, USA",Report a Skipped Recycling Pick Up,Trash/Recycling was not picked up as of 1/4/2025 at 3:00pm
43.0489191,-76.1517942,-76.1499,42.9927,"Garbage, Recycling & Graffiti","1-199 Norman Ave Syracuse, NY, 13207, USA",Electronic or Hazardous Waste That Has Not Been Disposed of Properly,Please push snow ALL THE WAY UP TO THE REFLECTOR on the dead end on Norman Ave. Snow must be pushed all the way back. 
43.0489191,-76.1517942,-76.1319,43.0558,"Garbage, Recycling & Graffiti","210 Delhi St Syracuse, New York, 13203",Yard Waste,
43.0489191,-76.1517942,-76.1025,43.0645,"Garbage, Recycling & Graffiti","268 Homecroft Rd Syracuse NY 13206, United States",Report Improperly Set Out Trash or Recycling (Illegal Setout),Couch on curb  Glencove side .
43.0489191,-76.1517942,-76.1501,43.0623,"Garbage, Recycling & Graffiti","609 E Division St Syracuse NY 13208, United States",Report a Skipped Recycling Pick Up,Recycling wasn't skipped but someone stole my recycling cart. How do I get another one? Do I have to pay for it
43.0489191,-76.1517942,-76.1125,43.0623,"Garbage, Recycling & Graffiti","348 Stafford Ave Syracuse, NY 13206, USA",Report Improperly Set Out Trash or Recycling (Illegal Setout),"Sanitation Carts

Please enforce that no carts are to be stored in front of house. Thank you."
43.0489191,-76.1517942,-76.1606,43.0099,"Garbage, Recycling & Graffiti","310 Barnes Ave Syracuse, New York, 13207",Report a Skipped Weekly Trash Pick Up,Constituent called to report their trash as skipped. No violations. 
43.0489191,-76.1517942,-76.1565,43.023,"Garbage, Recycling & Graffiti","1025 W Colvin St Syracuse, New York, 13207",Report a Skipped Weekly Trash Pick Up,Constituent called to report their trash as skipped. No violations. 
43.0489191,-76.1517942,-76.1437,43.0073,"Garbage, Recycling & Graffiti","116 W Florence Ave Syracuse, New York, 13205",Sanitation Exempt Skipped,Constituent says her trash cart was not emptied. 
43.0489191,-76.1517942,-76.1749,43.0523,"Garbage, Recycling & Graffiti","826 Park Ave Syracuse, New York, 13204",Report Improperly Set Out Trash or Recycling (Illegal Setout),"In response to the ticket already placed...

826 park ave is my residence.  There is not nor has there been a mattress or anything that would be considered an illegal set out in front of my home.   (See pictures)  

"
43.0489191,-76.1517942,-76.158,43.0314,"Garbage, Recycling & Graffiti","302 Hovey St Syracuse, New York, 13207",Report a Skipped Bulk Pick Up,Extra bags skipped per caller. 
43.0489191,-76.1517942,-76.1433,42.9947,"Garbage, Recycling & Graffiti","5117 S Salina St Syracuse, New York, 13205",Report a Skipped Recycling Pick Up,Constituent called to report their recycling as skipped. No violations. 
43.0489191,-76.1517942,-76.1416,43.0131,"Garbage, Recycling & Graffiti","3611 S Salina St Syracuse, New York, 13205",Report a Skipped Recycling Pick Up,Constituent called to report their recycling as skipped. No violations. 
43.0489191,-76.1517942,-76.1514,43.0016,"Garbage, Recycling & Graffiti","327 W Seneca Tpke Syracuse, New York, 13207",Sanitation Exempt Skipped,Constituent called to report that their recycling was skipped. No violations. 
43.0489191,-76.1517942,-76.1609,43.0174,"Garbage, Recycling & Graffiti","220 Valley Dr Syracuse, New York, 13207",Report a Skipped Bulk Pick Up,Constituent scheduled a bulk pickup. Skipped per caller. 
43.0489191,-76.1517942,-76.1453,43.0148,"Garbage, Recycling & Graffiti","1140 Cannon St Syracuse, New York, 13205",Report a Skipped Recycling Pick Up,Constituent says her recycling was skipped. 
43.0489191,-76.1517942,-76.1457,43.0189,"Garbage, Recycling & Graffiti","715 Cannon St Syracuse, New York, 13205",Report a Skipped Recycling Pick Up,Constituent says her recycling was skipped. 
43.0489191,-76.1517942,-76.1749,43.0523,"Garbage, Recycling & Graffiti","826 Park Ave Syracuse, New York, 13204",Report Improperly Set Out Trash or Recycling (Illegal Setout),couch and mattress at the curb
43.0489191,-76.1517942,-76.1456,43.0225,"Garbage, Recycling & Graffiti","200 Warner Ave Syracuse, New York, 13205",Report a Skipped Recycling Pick Up,Constituent says his recycling was skipped. 
43.0489191,-76.1517942,-76.1456,43.0225,"Garbage, Recycling & Graffiti","200 Warner Ave Syracuse, New York, 13205",Report a Skipped Weekly Trash Pick Up,Constituent says his weekly trash was skipped. 
43.0489191,-76.1517942,-76.1448,43.0754,"Garbage, Recycling & Graffiti","173 Ross Park Syracuse, New York, 13208",Tires,4 tires will set out 1/6 
43.0489191,-76.1517942,-76.1589,43.0189,"Garbage, Recycling & Graffiti","713 W Brighton Ave Syracuse, New York, 13207",Report a Skipped Bulk Pick Up,Constituent called to report that their scheduled bulk pick up as skipped. No violations. 
43.0489191,-76.1517942,-76.1372,43.0241,"Garbage, Recycling & Graffiti","232 Moore Ave Syracuse, New York, 13210",Report a Skipped Weekly Trash Pick Up,Constituent says his weekly trash was skipped. 
43.0489191,-76.1517942,-76.1138,43.0709,"Garbage, Recycling & Graffiti","239 North Ave Syracuse, New York, 13206",Report a Skipped Weekly Trash Pick Up,Constituent called to report their trash as skipped. No violations. 
43.0489191,-76.1517942,-76.1144,43.0404,"Garbage, Recycling & Graffiti","752 Westmoreland Ave Syracuse, New York, 13210",Sanitation Exempt Skipped,Medical exemption skipped trash. 
43.0489191,-76.1517942,-76.128,43.0619,"Garbage, Recycling & Graffiti","1252 James St Syracuse, New York, 13203",Tires,4 tires
43.0489191,-76.1517942,-76.124,43.0485,"Garbage, Recycling & Graffiti","1521 E Fayette St Syracuse, New York, 13210",Report a Skipped Bulk Pick Up,Extra bags scheduled in rubicon skipped per constituent. 
43.0489191,-76.1517942,-76.1418,42.9936,"Garbage, Recycling & Graffiti","151 Harding Pl Syracuse, New York, 13205",Report Improperly Set Out Trash or Recycling (Illegal Setout),There has been a blue couch sitting out at the curb since before Thanksgiving . Can something be done about this? I’ve sent messages and photos and it’s still there. 
43.0489191,-76.1517942,-76.1209,43.0346,"Garbage, Recycling & Graffiti","119 Westminster Ave Syracuse, New York, 13210",Report a Skipped Bulk Pick Up,Constituent called to report their scheduled bulk pick up as skipped. No violations. 
43.0489191,-76.1517942,-76.144,42.9932,"Garbage, Recycling & Graffiti","5306 S Salina St Syracuse, New York, 13205",Report Litter on Private Land,The trash in front of this house is getting blown all over South Salina street
43.0489191,-76.1517942,-76.0902,43.0523,"Garbage, Recycling & Graffiti","1007 Hazelwood Ave Syracuse, New York, 13224",Sanitation Exempt Skipped,Constituent says her weekly trash was skipped. 
43.0489191,-76.1517942,-76.1343,43.0656,"Garbage, Recycling & Graffiti","437 Dewitt St Syracuse, New York, 13203",Report a Skipped Weekly Trash Pick Up,Skipped weekly trash. 
43.0489191,-76.1517942,-76.0975,43.0621,"Garbage, Recycling & Graffiti","1318 Sunnycrest Rd Syracuse, New York, 13206",Report a Skipped Weekly Trash Pick Up,Skipped trash. 
43.0489191,-76.1517942,-76.1606,43.0548,"Garbage, Recycling & Graffiti","600–662 W Belden Ave Syracuse NY 13204, United States",Tires,Tires left on sidewalks
43.0489191,-76.1517942,-76.1703,43.0309,"Garbage, Recycling & Graffiti","221 Hubbell Ave Syracuse, New York, 13207",Tires,3 bike tires
43.0489191,-76.1517942,-76.1062,43.0635,"Garbage, Recycling & Graffiti","316 S Edwards Ave Syracuse, New York, 13206",Sanitation Exempt Skipped,"Skipped trash and recycling. Medical exemption, has not been picked up since added to the list. Trash and recycling bin are full.  "
43.0489191,-76.1517942,-76.1076,43.0665,"Garbage, Recycling & Graffiti","180 S Collingwood Ave Syracuse, NY, 13206, USA",Report Improperly Set Out Trash or Recycling (Illegal Setout),
43.0489191,-76.1517942,-76.1111,43.0733,"Garbage, Recycling & Graffiti","397 Lillian Ave Syracuse, New York, 13206",Report a Skipped Weekly Trash Pick Up,Skipped trash. On the Coughlin side. 
43.0489191,-76.1517942,-76.153,43.0382,"Garbage, Recycling & Graffiti","520 Oneida St Syracuse, New York, 13202",Report a Skipped Bulk Pick Up,Constituent called to report their scheduled bulk pick up as skipped. No violations.
43.0489191,-76.1517942,-76.1432,43.0714,"Garbage, Recycling & Graffiti","1407 Butternut St Syracuse, New York, 13208",Sanitation Exempt Skipped,Skipped trash and recycling. Medical exemption. 
43.0489191,-76.1517942,-76.1458,43.0338,"Garbage, Recycling & Graffiti","214 Martin Luther King E Syracuse NY 13205, United States",Report Litter on Public Land,"MLK from 200 block up to Renwick
"
43.0489191,-76.1517942,-76.1596,43.0239,"Garbage, Recycling & Graffiti","1322 South Ave Syracuse NY 13207, United States",Report Litter on Public Land,
43.0489191,-76.1517942,-76.1128,43.0669,"Garbage, Recycling & Graffiti","156 Stafford Ave Syracuse, New York, 13206",Report a Skipped Weekly Trash Pick Up,Skipped trash. 
43.0489191,-76.1517942,-76.1416,42.9908,"Garbage, Recycling & Graffiti","131 Conifer Dr Syracuse, New York, 13205",Yard Waste,Area rug 
43.0489191,-76.1517942,-76.188,43.0523,"Garbage, Recycling & Graffiti","1625 W Genesee St Syracuse, New York, 13204",Tires,4 Tires
43.0489191,-76.1517942,-76.1127,43.0659,"Garbage, Recycling & Graffiti","200 Stafford Ave Syracuse, New York, 13206",Report a Skipped Recycling Pick Up,"Skipped recycling, placed on Northcliffe Rd. "
43.0489191,-76.1517942,-76.1393,43.0527,"Garbage, Recycling & Graffiti","207 Howard St Syracuse, New York, 13203",Sanitation Exempt Skipped,Skipped recycling. 
43.0489191,-76.1517942,-76.1356,43.0535,"Garbage, Recycling & Graffiti","411 Lodi St Syracuse, New York, 13203",Report a Skipped Weekly Trash Pick Up,Constituent says his weekly trash and recycling were skipped. 
43.0489191,-76.1517942,-76.1609,43.0407,"Garbage, Recycling & Graffiti","205 Slocum Ave Syracuse, New York, 13204",Report Improperly Set Out Trash or Recycling (Illegal Setout),Constituent called to report an illegal setout of a couch. The house is boarded up and seeming to be a dumping zone. 
43.0489191,-76.1517942,-76.1525,43.0621,"Garbage, Recycling & Graffiti","1022 N Townsend St Syracuse, New York, 13208",Yard Waste,Constituent has called several times about a large pile of leaves in the street for the last month.
43.0489191,-76.1517942,-76.1098,43.0625,"Garbage, Recycling & Graffiti","344 Woodbine Ave Syracuse, New York, 13206",Report a Skipped Recycling Pick Up,Skipped recycling. 
43.0489191,-76.1517942,-76.1469,43.0616,"Garbage, Recycling & Graffiti","125 Peters St Syracuse, New York, 13208",Report Improperly Set Out Trash or Recycling (Illegal Setout),Constituent called again to report that this trash is piling up and has overflowing cans. Constituent is upset and disgusted because this is causing vermin to spread onto constituents' property. 
43.0489191,-76.1517942,-76.1249,43.0618,"Garbage, Recycling & Graffiti","300 Wilson St Syracuse, New York, 13203",Report a Skipped Weekly Trash Pick Up,Constituent says the 300 block was skipped. 
43.0489191,-76.1517942,-76.1453,43.0159,"Garbage, Recycling & Graffiti","200 W Calthrop Ave Syracuse, New York, 13205",Report Litter on Public Land,"Constituent called anonymously to report a pile of trash and debris at the curb. Stated the pile has been there for over a month, it is now attracting rodents to the area. Requesting for this to be picked up. "
43.0489191,-76.1517942,-76.1327,43.0626,"Garbage, Recycling & Graffiti","206 Dewitt St Syracuse, New York, 13203",Report a Skipped Recycling Pick Up,Constituent says his recycling was skipped. 
43.0489191,-76.1517942,-76.0962,43.0679,"Garbage, Recycling & Graffiti","144 Milford Dr E Syracuse, New York, 13206",Report a Skipped Recycling Pick Up,Constituent called to report her recycling as a partial skip. No violations. 
43.0489191,-76.1517942,-76.101,43.0489,"Garbage, Recycling & Graffiti","166 Fayette Blvd Syracuse, New York, 13224",Tires,1 tire
43.0489191,-76.1517942,-76.1762,43.0497,"Garbage, Recycling & Graffiti","148 Lakeview Ave Syracuse, New York, 13204",Report a Skipped Weekly Trash Pick Up,CONSTITUENT SAYS HIS WEEKLY TRASH WAS SKIPPED.
43.0489191,-76.1517942,-76.0916,43.0665,"Garbage, Recycling & Graffiti","217 Burns Ave Syracuse, New York, 13206",Sanitation Exempt Skipped,CONSTITUENT SAYS THE TRASH AND RECYCLING WAS SKIPPED. 
43.0489191,-76.1517942,-76.1379,43.0614,"Garbage, Recycling & Graffiti","413 Douglas St Syracuse, New York, 13203",Report a Skipped Recycling Pick Up,Constituent called to report their recycling as skipped. No violations. 
43.0489191,-76.1517942,-76.1399,43.079,"Garbage, Recycling & Graffiti","159 Harding St Syracuse, New York, 13208",Report a Skipped Weekly Trash Pick Up,Weekly trash skipped per caller
43.0489191,-76.1517942,-76.1531,43.0151,"Garbage, Recycling & Graffiti","157 Wiman Ave Syracuse, New York, 13205",Report Improperly Set Out Trash or Recycling (Illegal Setout),Constituent called to report that this address has trash building up around the property. Constituent said this is spilling onto their property. 
43.0489191,-76.1517942,-76.1421,43.0708,"Garbage, Recycling & Graffiti","1307 Highland St Syracuse, New York, 13203",Report a Skipped Weekly Trash Pick Up,Constituent says her weekly trash was skipped. She says her neighbors trash was also skipped. 
43.0489191,-76.1517942,-76.1708,43.0448,"Garbage, Recycling & Graffiti","700 Block Of Marcellus St Syracuse, New York, 13204",Report Litter on Public Land,2 private vendor trash containers appear to be abandoned in the roadway and on the public walkway along the old Rockwell Building.
43.0489191,-76.1517942,-76.1823,43.0485,"Garbage, Recycling & Graffiti","100 N Lowell Ave Syracuse, New York, 13204",Report a Skipped Weekly Trash Pick Up,Constituent emailed Cityline stating that trash in the 100 block was skipped. 
43.0489191,-76.1517942,-76.1302,43.0618,"Garbage, Recycling & Graffiti","1223 James St Syracuse, New York, 13203",Report a Skipped Recycling Pick Up,Constituent says her recycling was skipped. 
43.0489191,-76.1517942,-76.0926,43.064,"Garbage, Recycling & Graffiti","321 Clover Ridge Dr Syracuse, New York, 13206",Report a Skipped Weekly Trash Pick Up,Constituent says her weekly trash was skipped. 
43.0489191,-76.1517942,-76.1501,43.0487,"Garbage, Recycling & Graffiti","217 E Fayette St Syracuse, New York, 13202",Graffiti on Private Land,"in parking lot between church & building, Montgomery street building has gaffiti.   Building is old Masonic Temple building."
43.0489191,-76.1517942,-76.1346,43.0592,"Garbage, Recycling & Graffiti","James St & Oak St Syracuse, New York, 13203",Graffiti on Public Land,on street light pole
43.0489191,-76.1517942,-76.1404,43.0563,"Garbage, Recycling & Graffiti","James St & Lodi St Syracuse, New York, 13203",Graffiti on Public Land,on city traffic control box
43.0489191,-76.1517942,-76.1404,43.0563,"Garbage, Recycling & Graffiti","James St & Lodi St Syracuse, New York, 13203",Graffiti on Public Land,on City traffic control box
43.0489191,-76.1517942,-76.142,43.0556,"Garbage, Recycling & Graffiti","741 James St Syracuse, New York, 13203",Graffiti on Public Land,on Post Office mail box
43.0489191,-76.1517942,-76.1445,43.0543,"Garbage, Recycling & Graffiti","James St & N Mcbride St Syracuse, New York, 13203",Graffiti on Public Land,on Post Office mail box
43.0489191,-76.1517942,-76.1444,43.0546,"Garbage, Recycling & Graffiti","601 James St Syracuse, New York, 13203",Graffiti on Private Land,"on James side & on McBride side, on building"
43.0489191,-76.1517942,-76.146,43.0536,"Garbage, Recycling & Graffiti","James St & N Townsend St Syracuse, New York, 13203",Graffiti on Public Land,on city traffic control box
43.0489191,-76.1517942,-76.139,43.0723,"Garbage, Recycling & Graffiti","Grant Blvd & Wadsworth St Syracuse, New York, 13208",Graffiti on Public Land,on city traffic control box
43.0489191,-76.1517942,-76.1367,43.0724,"Garbage, Recycling & Graffiti","Grant Blvd & Oak St Syracuse, New York, 13208",Graffiti on Public Land,on city traffic control box
43.0489191,-76.1517942,-76.112,43.0686,"Garbage, Recycling & Graffiti","James St & Marlborough Rd Syracuse, New York, 13206",Graffiti on Public Land,on city traffic control box
43.0489191,-76.1517942,-76.1105,43.0686,"Garbage, Recycling & Graffiti","James St & Lillian Ave Syracuse, New York, 13206",Graffiti on Public Land,on city traffic control box
43.0489191,-76.1517942,-76.1045,43.0619,"Garbage, Recycling & Graffiti","Sunnycrest Rd & S Midler Ave Syracuse, New York, 13206",Graffiti on Public Land,on city traffic control box
43.0489191,-76.1517942,-76.117,43.0558,"Garbage, Recycling & Graffiti","1463 Burnet Ave Syracuse, New York, 13206",Graffiti on Private Land,on building
43.0489191,-76.1517942,-76.1432,43.0522,"Garbage, Recycling & Graffiti","332 Burnet Ave Syracuse, New York, 13203",Graffiti on Private Land,"on Verizon equipment box, in lawn near this address"
43.0489191,-76.1517942,-76.1222,43.0584,"Garbage, Recycling & Graffiti","Robinson St & Teall Ave Syracuse, New York, 13206",Graffiti on Public Land,on city traffic control box
43.0489191,-76.1517942,-76.1257,43.0581,"Garbage, Recycling & Graffiti","Robinson St & Vine St Syracuse, NY, 13203, USA",Graffiti on Private Land,on boarded up building
43.0489191,-76.1517942,-76.1257,43.0581,"Garbage, Recycling & Graffiti","Robinson St & Vine St Syracuse, New York, 13203",Graffiti on Private Land,vacant building on two faces of building
43.0489191,-76.1517942,-76.1245,43.0535,"Garbage, Recycling & Graffiti","Burnet Ave & Sherwood Ave Syracuse, New York, 13203",Graffiti on Public Land,on Spectrum cable box
43.0489191,-76.1517942,-76.1275,43.0527,"Garbage, Recycling & Graffiti","Burnet Ave & N Beech St Syracuse, New York, 13203",Graffiti on Public Land,on Post Office mail box
43.0489191,-76.1517942,-76.1469,43.0599,"Garbage, Recycling & Graffiti","Lodi St & Butternut St Syracuse, New York, 13208",Graffiti on Public Land,on DPW crossing signal pole
43.0489191,-76.1517942,-76.1382,43.0552,"Garbage, Recycling & Graffiti","Green St & Lodi St Syracuse, NY, 13203, USA",Graffiti on Public Land,2nd.    on city traffic control box
43.0489191,-76.1517942,-76.1382,43.0552,"Garbage, Recycling & Graffiti","Lodi St & Green St Syracuse, New York, 13203",Graffiti on Public Land,on Verizon equipment box
43.0489191,-76.1517942,-76.1415,43.0569,"Garbage, Recycling & Graffiti","Lodi St & E Willow St Syracuse, New York, 13203",Graffiti on Public Land,on city traffic control box
43.0489191,-76.1517942,-76.1361,43.0632,"Garbage, Recycling & Graffiti","Oak St & Park St Syracuse, NY, 13203, USA",Graffiti on Public Land,"near old KFC driveway, Verizon equipment box"
43.0489191,-76.1517942,-76.1361,43.0632,"Garbage, Recycling & Graffiti","Oak St & Park St Syracuse, NY, 13203, USA",Graffiti on Public Land,Verizon equipment box
43.0489191,-76.1517942,-76.1361,43.0632,"Garbage, Recycling & Graffiti","Oak St & Park St Syracuse, NY, 13203, USA",Graffiti on Public Land,city traffic control box
43.0489191,-76.1517942,-76.1361,43.0632,"Garbage, Recycling & Graffiti","Park St & Oak St Syracuse, New York, 13203",Graffiti on Public Land,"first:  on Verizon telephone box.
second:  on second box, opposite side of street.
"
43.0489191,-76.1517942,-76.1058,43.073,"Garbage, Recycling & Graffiti","279 N Midler Ave Syracuse, New York, 13206",Trash Can on Public Land,I will be putting out extra trash from.the holidays and I am moving out so it's extra trash from cleaning out apartment 
43.0489191,-76.1517942,-76.157,43.0629,"Garbage, Recycling & Graffiti","1215 N State St Syracuse, New York, 13208",Report a Skipped Bulk Pick Up,Constituent called to report their scheduled bulk pick up as skipped. No violations. 
43.0489191,-76.1517942,-76.1598,43.0414,"Garbage, Recycling & Graffiti","127 Shonnard St Syracuse, New York, 13204",Report a Skipped Recycling Pick Up,Constituent called to report that their recycling as skipped. No violations. 
43.0489191,-76.1517942,-76.1364,43.0708,"Garbage, Recycling & Graffiti","1354 Oak St Syracuse, New York, 13203",Report a Skipped Bulk Pick Up,Constituent called to report that their scheduled bulk ick as skipped. No violations. 
43.0489191,-76.1517942,-76.1445,43.0744,"Garbage, Recycling & Graffiti","160 Hood Ave Syracuse, New York, 13208",Report a Skipped Recycling Pick Up,Constituent called to report their recycling as skipped. No violations. 
43.0489191,-76.1517942,-76.1342,43.0733,"Garbage, Recycling & Graffiti","102 Bronx Ave Syracuse, New York, 13208",Report a Skipped Weekly Trash Pick Up,"Constituent says her weekly trash was skipped. 
"
43.0489191,-76.1517942,-76.1602,43.042,"Garbage, Recycling & Graffiti","703 Niagara St Syracuse, New York, 13204",Report a Skipped Recycling Pick Up,"Skipped recycling, week B. "
43.0489191,-76.1517942,-76.1355,43.0677,"Garbage, Recycling & Graffiti","413 Helen St Syracuse, New York, 13203",Report a Skipped Bulk Pick Up,Constituent called to report that their sched7ued bulk pick as skipped. No violations. 
43.0489191,-76.1517942,-76.1903,43.0561,"Garbage, Recycling & Graffiti","102 Lewis St Syracuse, New York, 13204",Report Improperly Set Out Trash or Recycling (Illegal Setout),"Constituent called to report that this address has bedframes, mattress, comforters, all at the curb. Their trash is also in the road and leaves their carts out. "
43.0489191,-76.1517942,-76.1416,43.0808,"Garbage, Recycling & Graffiti","2004 Court St Syracuse, New York, 13208",Report a Skipped Bulk Pick Up,Constituent called to report that their scheduled bulk pick up as partial skip. Extra bags. No violations. 
43.0489191,-76.1517942,-76.1694,43.045,"Garbage, Recycling & Graffiti","713 Marcellus St Syracuse, NY 13204, USA",Report Improperly Set Out Trash or Recycling (Illegal Setout),"numerous City provided trash cans have been abandoned at this property which I own, this is not a residential property and does not have its own trash cans, therefore these were stolen from other locations and abandoned and need to be picked up by the city to be taken back to their owners according to the serial numbers."
43.0489191,-76.1517942,-76.1715,43.0331,"Garbage, Recycling & Graffiti","1038 Bellevue Ave Syracuse, New York, 13204",Report a Skipped Recycling Pick Up,Skipped recycling. Week B. 
43.0489191,-76.1517942,-76.1361,43.071,"Garbage, Recycling & Graffiti","302 Mertens Ave Syracuse, New York, 13203",Report a Skipped Weekly Trash Pick Up,Constituent says her weekly trash was skipped. 
43.0489191,-76.1517942,-76.1898,43.0557,"Garbage, Recycling & Graffiti","721 Emerson Ave Syracuse, New York, 13204",Report Litter on Public Land,Constituent says the resident of this property is dumping furniture across the street on city property. 
43.0489191,-76.1517942,-76.1462,43.0621,"Garbage, Recycling & Graffiti","419 S Alvord St Syracuse, New York, 13208",Report a Skipped Bulk Pick Up,Constituent called to report their scheduled bulk pick up as skipped. No violations. 
43.0489191,-76.1517942,-76.1587,43.0379,"Garbage, Recycling & Graffiti","159 South Ave Syracuse, New York, 13204",Report a Skipped Recycling Pick Up,"Skipped recycling, B week, did not get picked up on Saturday. "
43.0489191,-76.1517942,-76.1669,43.042,"Garbage, Recycling & Graffiti","445 Seymour St Syracuse, New York, 13204",Report a Skipped Recycling Pick Up,Skipped recycling pick up. 
43.0489191,-76.1517942,-76.1797,43.0306,"Garbage, Recycling & Graffiti","244 Markland Ave Syracuse, New York, 13207",Report a Skipped Weekly Trash Pick Up,Constituent says his weekly trash was skipped. 
43.0489191,-76.1517942,-76.1394,42.9955,"Garbage, Recycling & Graffiti","217 E Cheltenham Rd Syracuse, New York, 13205",Report a Skipped Bulk Pick Up,"Skipped bulk, couch. "
43.0489191,-76.1517942,-76.1497,43.0165,"Garbage, Recycling & Graffiti","316 W Pleasant Ave Syracuse, New York, 13205",Report a Skipped Weekly Trash Pick Up,Constituent says her weekly trash was skipped. 